[{"OBJECT_NAME":"STARLINK-5993","OBJECT_ID":"2023-064B","EPOCH":"2026-03-09T15:20:28.247712","MEAN_MOTION":14.9832779,"ECCENTRICITY":0.0003151,"INCLINATION":70.0005,"RA_OF_ASC_NODE":144.7824,"ARG_OF_PERICENTER":270.3368,"MEAN_ANOMALY":89.743,"EPHEMERIS_TYPE":0,"CLASSIFICATION_TYPE":"U","NORAD_CAT_ID":56449,"ELEMENT_SET_NO":999,"REV_AT_EPOCH":15523,"BSTAR":5.2548e-5,"MEAN_MOTION_DOT":5.34e-6,"MEAN_MOTION_DDOT":0},{"OBJECT_NAME":"TURKSAT-3USAT","OBJECT_ID":"2013-018C","EPOCH":"2026-03-09T19:52:59.932416","MEAN_MOTION":14.95734186,"ECCENTRICITY":0.00131837,"INCLINATION":97.7913,"RA_OF_ASC_NODE":160.1317,"ARG_OF_PERICENTER":74.0986,"MEAN_ANOMALY":286.1687,"EPHEMERIS_TYPE":0,"CLASSIFICATION_TYPE":"U","NORAD_CAT_ID":39152,"ELEMENT_SET_NO":999,"REV_AT_EPOCH":69623,"BSTAR":0.00039789997,"MEAN_MOTION_DOT":4.382e-5,"MEAN_MOTION_DDOT":0}]
